[{"OBJECT_NAME":"OBJECT D","OBJECT_ID":"2024-174D","EPOCH":"2026-03-10T00:15:10.483200","MEAN_MOTION":15.28039787,"ECCENTRICITY":0.00110644,"INCLINATION":97.4441,"RA_OF_ASC_NODE":80.4677,"ARG_OF_PERICENTER":212.9968,"MEAN_ANOMALY":147.0582,"EPHEMERIS_TYPE":0,"CLASSIFICATION_TYPE":"U","NORAD_CAT_ID":61241,"ELEMENT_SET_NO":999,"REV_AT_EPOCH":8076,"BSTAR":0.00036340099,"MEAN_MOTION_DOT":9.884e-5,"MEAN_MOTION_DDOT":0},{"OBJECT_NAME":"STARLINK-33932","OBJECT_ID":"2025-091A","EPOCH":"2026-03-09T22:46:49.410336","MEAN_MOTION":15.27604365,"ECCENTRICITY":0.00030667,"INCLINATION":43.0031,"RA_OF_ASC_NODE":50.906,"ARG_OF_PERICENTER":279.4768,"MEAN_ANOMALY":80.5737,"EPHEMERIS_TYPE":0,"CLASSIFICATION_TYPE":"U","NORAD_CAT_ID":63775,"ELEMENT_SET_NO":999,"REV_AT_EPOCH":4898,"BSTAR":0.0010930259,"MEAN_MOTION_DOT":0.00029962,"MEAN_MOTION_DDOT":0}]
